BEIJING 1               
1 28890U 05043A   26094.31163854  .00000546  00000+0  11461-3 0  9991
2 28890  98.2782 227.1624 0015206 148.6312 211.5800 14.63486037 89846
HUANJING 1A (HJ-1A)     
1 33320U 08041A   26094.26151635  .00005692  00000+0  69021-3 0  9996
2 33320  97.6659  82.9831 0019860  26.0617 334.1593 14.83819688947444
HUANJING 1B (HJ-1B)     
1 33321U 08041B   26094.26567499  .00002284  00000+0  28264-3 0  9994
2 33321  97.6503  86.3769 0038012  66.9893 293.5324 14.83178582947452
YAOGAN-4                
1 33446U 08061A   26094.22409955  .00002455  00000+0  30787-3 0  9995
2 33446  97.9273  28.3055 0013290 316.3724  43.6438 14.83059750934706
DEIMOS-1                
1 35681U 09041A   26094.32078859  .00000725  00000+0  11444-3 0  9990
2 35681  97.7303 254.7875 0002722  80.0181 280.1336 14.75156781895991
UK-DMC 2                
1 35683U 09041C   26094.33119365  .00001439  00000+0  21665-3 0  9990
2 35683  97.8707 231.1577 0001494  99.9721 260.1658 14.75911446895671
DMC3-FM1                
1 40715U 15032A   26094.25505553  .00001643  00000+0  19556-3 0  9991
2 40715  97.6568 322.2886 0004322 309.0020  51.0810 14.85657347578933
DMC3-FM2                
1 40716U 15032B   26094.27732851  .00001538  00000+0  18344-3 0  9994
2 40716  97.6625 323.8333 0004956 315.6728  44.4090 14.85661390578932
DMC3-FM3                
1 40717U 15032C   26094.23306356  .00000666  00000+0  82814-4 0  9993
2 40717  97.6677 325.4959 0004268 316.5082  43.5797 14.85657431578936
