[{"OBJECT_NAME":"BEIJING 1","OBJECT_ID":"2005-043A","EPOCH":"2026-04-04T07:28:45.569856","MEAN_MOTION":14.63486037,"ECCENTRICITY":0.00152067,"INCLINATION":98.2782,"RA_OF_ASC_NODE":227.1624,"ARG_OF_PERICENTER":148.6312,"MEAN_ANOMALY":211.58,"EPHEMERIS_TYPE":0,"CLASSIFICATION_TYPE":"U","NORAD_CAT_ID":28890,"ELEMENT_SET_NO":999,"REV_AT_EPOCH":8984,"BSTAR":0.00011460705,"MEAN_MOTION_DOT":5.46e-6,"MEAN_MOTION_DDOT":0},{"OBJECT_NAME":"HUANJING 1A (HJ-1A)","OBJECT_ID":"2008-041A","EPOCH":"2026-04-04T06:16:35.012640","MEAN_MOTION":14.83819688,"ECCENTRICITY":0.00198608,"INCLINATION":97.6659,"RA_OF_ASC_NODE":82.9831,"ARG_OF_PERICENTER":26.0617,"MEAN_ANOMALY":334.1593,"EPHEMERIS_TYPE":0,"CLASSIFICATION_TYPE":"U","NORAD_CAT_ID":33320,"ELEMENT_SET_NO":999,"REV_AT_EPOCH":94744,"BSTAR":0.00069021411,"MEAN_MOTION_DOT":5.692e-5,"MEAN_MOTION_DDOT":0},{"OBJECT_NAME":"HUANJING 1B (HJ-1B)","OBJECT_ID":"2008-041B","EPOCH":"2026-04-04T06:22:34.319136","MEAN_MOTION":14.83178582,"ECCENTRICITY":0.00380124,"INCLINATION":97.6503,"RA_OF_ASC_NODE":86.3769,"ARG_OF_PERICENTER":66.9893,"MEAN_ANOMALY":293.5324,"EPHEMERIS_TYPE":0,"CLASSIFICATION_TYPE":"U","NORAD_CAT_ID":33321,"ELEMENT_SET_NO":999,"REV_AT_EPOCH":94745,"BSTAR":0.00028264353,"MEAN_MOTION_DOT":2.284e-5,"MEAN_MOTION_DDOT":0},{"OBJECT_NAME":"YAOGAN-4","OBJECT_ID":"2008-061A","EPOCH":"2026-04-04T05:22:42.201120","MEAN_MOTION":14.8305975,"ECCENTRICITY":0.00132904,"INCLINATION":97.9273,"RA_OF_ASC_NODE":28.3055,"ARG_OF_PERICENTER":316.3724,"MEAN_ANOMALY":43.6438,"EPHEMERIS_TYPE":0,"CLASSIFICATION_TYPE":"U","NORAD_CAT_ID":33446,"ELEMENT_SET_NO":999,"REV_AT_EPOCH":93470,"BSTAR":0.00030786937,"MEAN_MOTION_DOT":2.455e-5,"MEAN_MOTION_DDOT":0},{"OBJECT_NAME":"DEIMOS-1","OBJECT_ID":"2009-041A","EPOCH":"2026-04-04T07:41:56.134176","MEAN_MOTION":14.75156781,"ECCENTRICITY":0.0002722,"INCLINATION":97.7303,"RA_OF_ASC_NODE":254.7875,"ARG_OF_PERICENTER":80.0181,"MEAN_ANOMALY":280.1336,"EPHEMERIS_TYPE":0,"CLASSIFICATION_TYPE":"U","NORAD_CAT_ID":35681,"ELEMENT_SET_NO":999,"REV_AT_EPOCH":89599,"BSTAR":0.00011443613,"MEAN_MOTION_DOT":7.25e-6,"MEAN_MOTION_DDOT":0},{"OBJECT_NAME":"UK-DMC 2","OBJECT_ID":"2009-041C","EPOCH":"2026-04-04T07:56:55.131360","MEAN_MOTION":14.75911446,"ECCENTRICITY":0.00014948,"INCLINATION":97.8707,"RA_OF_ASC_NODE":231.1577,"ARG_OF_PERICENTER":99.9721,"MEAN_ANOMALY":260.1658,"EPHEMERIS_TYPE":0,"CLASSIFICATION_TYPE":"U","NORAD_CAT_ID":35683,"ELEMENT_SET_NO":999,"REV_AT_EPOCH":89567,"BSTAR":0.00021664521,"MEAN_MOTION_DOT":1.439e-5,"MEAN_MOTION_DDOT":0},{"OBJECT_NAME":"DMC3-FM1","OBJECT_ID":"2015-032A","EPOCH":"2026-04-04T06:07:16.797792","MEAN_MOTION":14.85657347,"ECCENTRICITY":0.00043221,"INCLINATION":97.6568,"RA_OF_ASC_NODE":322.2886,"ARG_OF_PERICENTER":309.002,"MEAN_ANOMALY":51.081,"EPHEMERIS_TYPE":0,"CLASSIFICATION_TYPE":"U","NORAD_CAT_ID":40715,"ELEMENT_SET_NO":999,"REV_AT_EPOCH":57893,"BSTAR":0.00019556416,"MEAN_MOTION_DOT":1.643e-5,"MEAN_MOTION_DDOT":0},{"OBJECT_NAME":"DMC3-FM2","OBJECT_ID":"2015-032B","EPOCH":"2026-04-04T06:39:21.183264","MEAN_MOTION":14.8566139,"ECCENTRICITY":0.00049569,"INCLINATION":97.6625,"RA_OF_ASC_NODE":323.8333,"ARG_OF_PERICENTER":315.6728,"MEAN_ANOMALY":44.409,"EPHEMERIS_TYPE":0,"CLASSIFICATION_TYPE":"U","NORAD_CAT_ID":40716,"ELEMENT_SET_NO":999,"REV_AT_EPOCH":57893,"BSTAR":0.00018344089,"MEAN_MOTION_DOT":1.538e-5,"MEAN_MOTION_DDOT":0},{"OBJECT_NAME":"DMC3-FM3","OBJECT_ID":"2015-032C","EPOCH":"2026-04-04T05:35:36.691584","MEAN_MOTION":14.85657431,"ECCENTRICITY":0.00042687,"INCLINATION":97.6677,"RA_OF_ASC_NODE":325.4959,"ARG_OF_PERICENTER":316.5082,"MEAN_ANOMALY":43.5797,"EPHEMERIS_TYPE":0,"CLASSIFICATION_TYPE":"U","NORAD_CAT_ID":40717,"ELEMENT_SET_NO":999,"REV_AT_EPOCH":57893,"BSTAR":8.2814114e-5,"MEAN_MOTION_DOT":6.66e-6,"MEAN_MOTION_DDOT":0}]
